ARKTIKA-M 2             
1 58584U 23198A   25123.50623112  .00000129  00000+0  00000+0 0  9996
2 58584  63.2278 199.2709 6878445 268.9880  18.3781  2.00610550 10097
TIANMU-1 11             
1 58645U 23205A   25124.14059398  .00008045  00000+0  35796-3 0  9992
2 58645  97.3753 147.9295 0010115  16.8526 343.3044 15.21696877 75215
TIANMU-1 12             
1 58646U 23205B   25124.15619324  .00008155  00000+0  36220-3 0  9990
2 58646  97.3739 147.8152 0008006  12.4973 347.6461 15.21769789 75207
TIANMU-1 13             
1 58647U 23205C   25124.18765235  .00007631  00000+0  34097-3 0  9995
2 58647  97.3769 147.9673 0007167 345.8455  14.2579 15.21594678 75205
TIANMU-1 14             
1 58648U 23205D   25124.17233927  .00007653  00000+0  34008-3 0  9999
2 58648  97.3696 147.5045 0008358 354.5031   5.6112 15.21774084 75202
TIANMU-1 19             
1 58660U 23208A   25124.16441345  .00009731  00000+0  40933-3 0  9993
2 58660  97.4234 236.6995 0004630 333.4667  26.6332 15.23590300 74899
TIANMU-1 20             
1 58661U 23208B   25124.19468585  .00010441  00000+0  42336-3 0  9991
2 58661  97.4168 236.9599 0007336 340.9698  19.1264 15.24794743 74947
TIANMU-1 21             
1 58662U 23208C   25124.23982183  .00011177  00000+0  42866-3 0  9997
2 58662  97.4212 238.0645 0006831 339.0433  21.0525 15.26642992 75008
TIANMU-1 22             
1 58663U 23208D   25124.21678786  .00009007  00000+0  37894-3 0  9991
2 58663  97.4227 236.8570 0003810   6.6927 353.4360 15.23608598 74916
TIANMU-1 15             
1 58700U 24004A   25123.90394111  .00008315  00000+0  36938-3 0  9999
2 58700  97.4663 306.7368 0007124  14.9629 345.1816 15.21770010 73434
TIANMU-1 16             
1 58701U 24004B   25124.15213712  .00007725  00000+0  34417-3 0  9999
2 58701  97.4596 306.5599 0007318  15.0097 345.1355 15.21692187 73470
TIANMU-1 17             
1 58702U 24004C   25124.20836913  .00007808  00000+0  34701-3 0  9998
2 58702  97.4633 306.9056 0005759  17.5770 342.5664 15.21781463 73477
TIANMU-1 18             
1 58703U 24004D   25124.18799184  .00008209  00000+0  36646-3 0  9990
2 58703  97.4651 307.0370 0005236   2.4755 357.6505 15.21615713 73470
INSAT-3DS               
1 58990U 24033A   25123.90056199 -.00000167  00000+0  00000+0 0  9998
2 58990   0.1113  90.3142 0001496 298.8469 239.1574  1.00271500 42962
