[
  {
    "OBJECT_NAME": "ARKTIKA-M 2",
    "OBJECT_ID": "2023-198A",
    "EPOCH": "2025-05-03T12:08:58.368768",
    "MEAN_MOTION": 2.0061055,
    "ECCENTRICITY": 0.6878445,
    "INCLINATION": 63.2278,
    "RA_OF_ASC_NODE": 199.2709,
    "ARG_OF_PERICENTER": 268.988,
    "MEAN_ANOMALY": 18.3781,
    "EPHEMERIS_TYPE": 0,
    "CLASSIFICATION_TYPE": "U",
    "NORAD_CAT_ID": 58584,
    "ELEMENT_SET_NO": 999,
    "REV_AT_EPOCH": 1009,
    "BSTAR": 0,
    "MEAN_MOTION_DOT": 1.29e-06,
    "MEAN_MOTION_DDOT": 0
  },
  {
    "OBJECT_NAME": "TIANMU-1 11",
    "OBJECT_ID": "2023-205A",
    "EPOCH": "2025-05-04T03:22:27.319872",
    "MEAN_MOTION": 15.21696877,
    "ECCENTRICITY": 0.0010115,
    "INCLINATION": 97.3753,
    "RA_OF_ASC_NODE": 147.9295,
    "ARG_OF_PERICENTER": 16.8526,
    "MEAN_ANOMALY": 343.3044,
    "EPHEMERIS_TYPE": 0,
    "CLASSIFICATION_TYPE": "U",
    "NORAD_CAT_ID": 58645,
    "ELEMENT_SET_NO": 999,
    "REV_AT_EPOCH": 7521,
    "BSTAR": 0.00035796,
    "MEAN_MOTION_DOT": 8.045e-05,
    "MEAN_MOTION_DDOT": 0
  },
  {
    "OBJECT_NAME": "TIANMU-1 12",
    "OBJECT_ID": "2023-205B",
    "EPOCH": "2025-05-04T03:44:55.095936",
    "MEAN_MOTION": 15.21769789,
    "ECCENTRICITY": 0.0008006,
    "INCLINATION": 97.3739,
    "RA_OF_ASC_NODE": 147.8152,
    "ARG_OF_PERICENTER": 12.4973,
    "MEAN_ANOMALY": 347.6461,
    "EPHEMERIS_TYPE": 0,
    "CLASSIFICATION_TYPE": "U",
    "NORAD_CAT_ID": 58646,
    "ELEMENT_SET_NO": 999,
    "REV_AT_EPOCH": 7520,
    "BSTAR": 0.0003622,
    "MEAN_MOTION_DOT": 8.155e-05,
    "MEAN_MOTION_DDOT": 0
  },
  {
    "OBJECT_NAME": "TIANMU-1 13",
    "OBJECT_ID": "2023-205C",
    "EPOCH": "2025-05-04T04:30:13.163040",
    "MEAN_MOTION": 15.21594678,
    "ECCENTRICITY": 0.0007167,
    "INCLINATION": 97.3769,
    "RA_OF_ASC_NODE": 147.9673,
    "ARG_OF_PERICENTER": 345.8455,
    "MEAN_ANOMALY": 14.2579,
    "EPHEMERIS_TYPE": 0,
    "CLASSIFICATION_TYPE": "U",
    "NORAD_CAT_ID": 58647,
    "ELEMENT_SET_NO": 999,
    "REV_AT_EPOCH": 7520,
    "BSTAR": 0.00034097,
    "MEAN_MOTION_DOT": 7.631e-05,
    "MEAN_MOTION_DDOT": 0
  },
  {
    "OBJECT_NAME": "TIANMU-1 14",
    "OBJECT_ID": "2023-205D",
    "EPOCH": "2025-05-04T04:08:10.112928",
    "MEAN_MOTION": 15.21774084,
    "ECCENTRICITY": 0.0008358,
    "INCLINATION": 97.3696,
    "RA_OF_ASC_NODE": 147.5045,
    "ARG_OF_PERICENTER": 354.5031,
    "MEAN_ANOMALY": 5.6112,
    "EPHEMERIS_TYPE": 0,
    "CLASSIFICATION_TYPE": "U",
    "NORAD_CAT_ID": 58648,
    "ELEMENT_SET_NO": 999,
    "REV_AT_EPOCH": 7520,
    "BSTAR": 0.00034008,
    "MEAN_MOTION_DOT": 7.653e-05,
    "MEAN_MOTION_DDOT": 0
  },
  {
    "OBJECT_NAME": "TIANMU-1 19",
    "OBJECT_ID": "2023-208A",
    "EPOCH": "2025-05-04T03:56:45.322080",
    "MEAN_MOTION": 15.235903,
    "ECCENTRICITY": 0.000463,
    "INCLINATION": 97.4234,
    "RA_OF_ASC_NODE": 236.6995,
    "ARG_OF_PERICENTER": 333.4667,
    "MEAN_ANOMALY": 26.6332,
    "EPHEMERIS_TYPE": 0,
    "CLASSIFICATION_TYPE": "U",
    "NORAD_CAT_ID": 58660,
    "ELEMENT_SET_NO": 999,
    "REV_AT_EPOCH": 7489,
    "BSTAR": 0.00040933,
    "MEAN_MOTION_DOT": 9.731e-05,
    "MEAN_MOTION_DDOT": 0
  },
  {
    "OBJECT_NAME": "TIANMU-1 20",
    "OBJECT_ID": "2023-208B",
    "EPOCH": "2025-05-04T04:40:20.857440",
    "MEAN_MOTION": 15.24794743,
    "ECCENTRICITY": 0.0007336,
    "INCLINATION": 97.4168,
    "RA_OF_ASC_NODE": 236.9599,
    "ARG_OF_PERICENTER": 340.9698,
    "MEAN_ANOMALY": 19.1264,
    "EPHEMERIS_TYPE": 0,
    "CLASSIFICATION_TYPE": "U",
    "NORAD_CAT_ID": 58661,
    "ELEMENT_SET_NO": 999,
    "REV_AT_EPOCH": 7494,
    "BSTAR": 0.00042336,
    "MEAN_MOTION_DOT": 0.00010441,
    "MEAN_MOTION_DDOT": 0
  },
  {
    "OBJECT_NAME": "TIANMU-1 21",
    "OBJECT_ID": "2023-208C",
    "EPOCH": "2025-05-04T05:45:20.606112",
    "MEAN_MOTION": 15.26642992,
    "ECCENTRICITY": 0.0006831,
    "INCLINATION": 97.4212,
    "RA_OF_ASC_NODE": 238.0645,
    "ARG_OF_PERICENTER": 339.0433,
    "MEAN_ANOMALY": 21.0525,
    "EPHEMERIS_TYPE": 0,
    "CLASSIFICATION_TYPE": "U",
    "NORAD_CAT_ID": 58662,
    "ELEMENT_SET_NO": 999,
    "REV_AT_EPOCH": 7500,
    "BSTAR": 0.00042866,
    "MEAN_MOTION_DOT": 0.00011177,
    "MEAN_MOTION_DDOT": 0
  },
  {
    "OBJECT_NAME": "TIANMU-1 22",
    "OBJECT_ID": "2023-208D",
    "EPOCH": "2025-05-04T05:12:10.471104",
    "MEAN_MOTION": 15.23608598,
    "ECCENTRICITY": 0.000381,
    "INCLINATION": 97.4227,
    "RA_OF_ASC_NODE": 236.857,
    "ARG_OF_PERICENTER": 6.6927,
    "MEAN_ANOMALY": 353.436,
    "EPHEMERIS_TYPE": 0,
    "CLASSIFICATION_TYPE": "U",
    "NORAD_CAT_ID": 58663,
    "ELEMENT_SET_NO": 999,
    "REV_AT_EPOCH": 7491,
    "BSTAR": 0.00037894,
    "MEAN_MOTION_DOT": 9.007e-05,
    "MEAN_MOTION_DDOT": 0
  },
  {
    "OBJECT_NAME": "TIANMU-1 15",
    "OBJECT_ID": "2024-004A",
    "EPOCH": "2025-05-03T21:41:40.511904",
    "MEAN_MOTION": 15.2177001,
    "ECCENTRICITY": 0.0007124,
    "INCLINATION": 97.4663,
    "RA_OF_ASC_NODE": 306.7368,
    "ARG_OF_PERICENTER": 14.9629,
    "MEAN_ANOMALY": 345.1816,
    "EPHEMERIS_TYPE": 0,
    "CLASSIFICATION_TYPE": "U",
    "NORAD_CAT_ID": 58700,
    "ELEMENT_SET_NO": 999,
    "REV_AT_EPOCH": 7343,
    "BSTAR": 0.00036938,
    "MEAN_MOTION_DOT": 8.315e-05,
    "MEAN_MOTION_DDOT": 0
  },
  {
    "OBJECT_NAME": "TIANMU-1 16",
    "OBJECT_ID": "2024-004B",
    "EPOCH": "2025-05-04T03:39:04.647168",
    "MEAN_MOTION": 15.21692187,
    "ECCENTRICITY": 0.0007318,
    "INCLINATION": 97.4596,
    "RA_OF_ASC_NODE": 306.5599,
    "ARG_OF_PERICENTER": 15.0097,
    "MEAN_ANOMALY": 345.1355,
    "EPHEMERIS_TYPE": 0,
    "CLASSIFICATION_TYPE": "U",
    "NORAD_CAT_ID": 58701,
    "ELEMENT_SET_NO": 999,
    "REV_AT_EPOCH": 7347,
    "BSTAR": 0.00034417,
    "MEAN_MOTION_DOT": 7.725e-05,
    "MEAN_MOTION_DDOT": 0
  },
  {
    "OBJECT_NAME": "TIANMU-1 17",
    "OBJECT_ID": "2024-004C",
    "EPOCH": "2025-05-04T05:00:03.092832",
    "MEAN_MOTION": 15.21781463,
    "ECCENTRICITY": 0.0005759,
    "INCLINATION": 97.4633,
    "RA_OF_ASC_NODE": 306.9056,
    "ARG_OF_PERICENTER": 17.577,
    "MEAN_ANOMALY": 342.5664,
    "EPHEMERIS_TYPE": 0,
    "CLASSIFICATION_TYPE": "U",
    "NORAD_CAT_ID": 58702,
    "ELEMENT_SET_NO": 999,
    "REV_AT_EPOCH": 7347,
    "BSTAR": 0.00034701,
    "MEAN_MOTION_DOT": 7.808e-05,
    "MEAN_MOTION_DDOT": 0
  },
  {
    "OBJECT_NAME": "TIANMU-1 18",
    "OBJECT_ID": "2024-004D",
    "EPOCH": "2025-05-04T04:30:42.494976",
    "MEAN_MOTION": 15.21615713,
    "ECCENTRICITY": 0.0005236,
    "INCLINATION": 97.4651,
    "RA_OF_ASC_NODE": 307.037,
    "ARG_OF_PERICENTER": 2.4755,
    "MEAN_ANOMALY": 357.6505,
    "EPHEMERIS_TYPE": 0,
    "CLASSIFICATION_TYPE": "U",
    "NORAD_CAT_ID": 58703,
    "ELEMENT_SET_NO": 999,
    "REV_AT_EPOCH": 7347,
    "BSTAR": 0.00036646,
    "MEAN_MOTION_DOT": 8.209e-05,
    "MEAN_MOTION_DDOT": 0
  },
  {
    "OBJECT_NAME": "INSAT-3DS",
    "OBJECT_ID": "2024-033A",
    "EPOCH": "2025-05-03T21:36:48.555936",
    "MEAN_MOTION": 1.002715,
    "ECCENTRICITY": 0.0001496,
    "INCLINATION": 0.1113,
    "RA_OF_ASC_NODE": 90.3142,
    "ARG_OF_PERICENTER": 298.8469,
    "MEAN_ANOMALY": 239.1574,
    "EPHEMERIS_TYPE": 0,
    "CLASSIFICATION_TYPE": "U",
    "NORAD_CAT_ID": 58990,
    "ELEMENT_SET_NO": 999,
    "REV_AT_EPOCH": 4296,
    "BSTAR": 0,
    "MEAN_MOTION_DOT": -1.67e-06,
    "MEAN_MOTION_DDOT": 0
  }
]